{
  "type": "FeatureCollection",
  "features": [
    {
      "type": "Feature",
      "properties": {
        "norad_id": 66563,
        "name": "STARLINK-35437",
        "group": "last-30-days",
        "lat": -42.90477365346466,
        "lon": 24.599963025623605,
        "alt_km": 417.15395497306326,
        "timestamp": "2025-12-13T03:42:10.036826+00:00",
        "meta_object_name": "STARLINK-35437",
        "meta_object_id": "2025-268G",
        "meta_epoch": "2025-12-12T06:00:00.999648",
        "meta_mean_motion": 15.50531228,
        "meta_eccentricity": 0.00016035,
        "meta_inclination": 43,
        "meta_ra_of_asc_node": 124.034,
        "meta_arg_of_pericenter": 269.4606,
        "meta_mean_anomaly": 343.7123,
        "meta_ephemeris_type": 0,
        "meta_classification_type": "U",
        "meta_norad_cat_id": 66563,
        "meta_element_set_no": 999,
        "meta_rev_at_epoch": 458,
        "meta_bstar": 0.0010330952,
        "meta_mean_motion_dot": 0.00060633,
        "meta_mean_motion_ddot": 0,
        "tle_line1": "1 66563U 25268G   25346.25001157  .00060633  00000+0  10331-2 0  9997",
        "tle_line2": "2 66563  43.0000 124.0340 0001603 269.4606 343.7123 15.50531228  4584"
      },
      "geometry": {
        "type": "Point",
        "coordinates": [
          24.599963025623605,
          -42.90477365346466
        ]
      }
    },
    {
      "type": "Feature",
      "properties": {
        "norad_id": 66564,
        "name": "STARLINK-35358",
        "group": "last-30-days",
        "lat": -42.96861873487321,
        "lon": 27.16848515992254,
        "alt_km": 417.3383048566784,
        "timestamp": "2025-12-13T03:42:10.036839+00:00",
        "meta_object_name": "STARLINK-35358",
        "meta_object_id": "2025-268H",
        "meta_epoch": "2025-12-12T06:00:00.999648",
        "meta_mean_motion": 15.50560054,
        "meta_eccentricity": 0.00015075,
        "meta_inclination": 42.9998,
        "meta_ra_of_asc_node": 124.0296,
        "meta_arg_of_pericenter": 264.8693,
        "meta_mean_anomaly": 350.2181,
        "meta_ephemeris_type": 0,
        "meta_classification_type": "U",
        "meta_norad_cat_id": 66564,
        "meta_element_set_no": 999,
        "meta_rev_at_epoch": 454,
        "meta_bstar": 0.00032177849,
        "meta_mean_motion_dot": 0.00018568,
        "meta_mean_motion_ddot": 0,
        "tle_line1": "1 66564U 25268H   25346.25001157  .00018568  00000+0  32178-3 0  9992",
        "tle_line2": "2 66564  42.9998 124.0296 0001507 264.8693 350.2181 15.50560054  4549"
      },
      "geometry": {
        "type": "Point",
        "coordinates": [
          27.16848515992254,
          -42.96861873487321
        ]
      }
    },
    {
      "type": "Feature",
      "properties": {
        "norad_id": 66565,
        "name": "STARLINK-35893",
        "group": "last-30-days",
        "lat": -42.9750722345579,
        "lon": 29.737650329250844,
        "alt_km": 417.4041369252118,
        "timestamp": "2025-12-13T03:42:10.036849+00:00",
        "meta_object_name": "STARLINK-35893",
        "meta_object_id": "2025-268J",
        "meta_epoch": "2025-12-12T06:00:00.999648",
        "meta_mean_motion": 15.50570203,
        "meta_eccentricity": 0.00015308,
        "meta_inclination": 42.9999,
        "meta_ra_of_asc_node": 124.0245,
        "meta_arg_of_pericenter": 263.2072,
        "meta_mean_anomaly": 353.797,
        "meta_ephemeris_type": 0,
        "meta_classification_type": "U",
        "meta_norad_cat_id": 66565,
        "meta_element_set_no": 999,
        "meta_rev_at_epoch": 458,
        "meta_bstar": -5.0951517e-05,
        "meta_mean_motion_dot": -3.328e-05,
        "meta_mean_motion_ddot": 0,
        "tle_line1": "1 66565U 25268J   25346.25001157 -.00003328  00000+0 -50952-4 0  9994",
        "tle_line2": "2 66565  42.9999 124.0245 0001530 263.2072 353.7970 15.50570203  4580"
      },
      "geometry": {
        "type": "Point",
        "coordinates": [
          29.737650329250844,
          -42.9750722345579
        ]
      }
    },
    {
      "type": "Feature",
      "properties": {
        "norad_id": 66566,
        "name": "STARLINK-35871",
        "group": "last-30-days",
        "lat": -42.92170313065469,
        "lon": 32.373488671642775,
        "alt_km": 417.3198560694009,
        "timestamp": "2025-12-13T03:42:10.036859+00:00",
        "meta_object_name": "STARLINK-35871",
        "meta_object_id": "2025-268K",
        "meta_epoch": "2025-12-12T06:00:00.999648",
        "meta_mean_motion": 15.505754,
        "meta_eccentricity": 0.00015838,
        "meta_inclination": 43,
        "meta_ra_of_asc_node": 124.0194,
        "meta_arg_of_pericenter": 284.5211,
        "meta_mean_anomaly": 334.3613,
        "meta_ephemeris_type": 0,
        "meta_classification_type": "U",
        "meta_norad_cat_id": 66566,
        "meta_element_set_no": 999,
        "meta_rev_at_epoch": 458,
        "meta_bstar": 0.00022536915,
        "meta_mean_motion_dot": 0.000129,
        "meta_mean_motion_ddot": 0,
        "tle_line1": "1 66566U 25268K   25346.25001157  .00012900  00000+0  22537-3 0  9996",
        "tle_line2": "2 66566  43.0000 124.0194 0001583 284.5211 334.3613 15.50575400  4581"
      },
      "geometry": {
        "type": "Point",
        "coordinates": [
          32.373488671642775,
          -42.92170313065469
        ]
      }
    },
    {
      "type": "Feature",
      "properties": {
        "norad_id": 66567,
        "name": "STARLINK-35825",
        "group": "last-30-days",
        "lat": -42.80551169807196,
        "lon": 35.0420235142144,
        "alt_km": 417.3189895983387,
        "timestamp": "2025-12-13T03:42:10.036871+00:00",
        "meta_object_name": "STARLINK-35825",
        "meta_object_id": "2025-268L",
        "meta_epoch": "2025-12-12T06:00:00.999648",
        "meta_mean_motion": 15.50523718,
        "meta_eccentricity": 0.00013168,
        "meta_inclination": 43,
        "meta_ra_of_asc_node": 124.0148,
        "meta_arg_of_pericenter": 268.7934,
        "meta_mean_anomaly": 352.0577,
        "meta_ephemeris_type": 0,
        "meta_classification_type": "U",
        "meta_norad_cat_id": 66567,
        "meta_element_set_no": 999,
        "meta_rev_at_epoch": 458,
        "meta_bstar": 0.0011524317,
        "meta_mean_motion_dot": 0.00067719,
        "meta_mean_motion_ddot": 0,
        "tle_line1": "1 66567U 25268L   25346.25001157  .00067719  00000+0  11524-2 0  9998",
        "tle_line2": "2 66567  43.0000 124.0148 0001316 268.7934 352.0577 15.50523718  4582"
      },
      "geometry": {
        "type": "Point",
        "coordinates": [
          35.0420235142144,
          -42.80551169807196
        ]
      }
    },
    {
      "type": "Feature",
      "properties": {
        "norad_id": 66568,
        "name": "STARLINK-35803",
        "group": "last-30-days",
        "lat": -42.63622821245703,
        "lon": 37.58593174732684,
        "alt_km": 417.0486126916676,
        "timestamp": "2025-12-13T03:42:10.036884+00:00",
        "meta_object_name": "STARLINK-35803",
        "meta_object_id": "2025-268M",
        "meta_epoch": "2025-12-12T06:00:00.999648",
        "meta_mean_motion": 15.50531504,
        "meta_eccentricity": 0.00018175,
        "meta_inclination": 43.0001,
        "meta_ra_of_asc_node": 124.0095,
        "meta_arg_of_pericenter": 281.8198,
        "meta_mean_anomaly": 340.9368,
        "meta_ephemeris_type": 0,
        "meta_classification_type": "U",
        "meta_norad_cat_id": 66568,
        "meta_element_set_no": 999,
        "meta_rev_at_epoch": 459,
        "meta_bstar": 0.00090069479,
        "meta_mean_motion_dot": 0.00052766,
        "meta_mean_motion_ddot": 0,
        "tle_line1": "1 66568U 25268M   25346.25001157  .00052766  00000+0  90069-3 0  9997",
        "tle_line2": "2 66568  43.0001 124.0095 0001817 281.8198 340.9368 15.50531504  4596"
      },
      "geometry": {
        "type": "Point",
        "coordinates": [
          37.58593174732684,
          -42.63622821245703
        ]
      }
    },
    {
      "type": "Feature",
      "properties": {
        "norad_id": 66569,
        "name": "STARLINK-35835",
        "group": "last-30-days",
        "lat": -42.41266468372382,
        "lon": 40.0938244029097,
        "alt_km": 417.205797311437,
        "timestamp": "2025-12-13T03:42:10.036894+00:00",
        "meta_object_name": "STARLINK-35835",
        "meta_object_id": "2025-268N",
        "meta_epoch": "2025-12-12T06:00:00.999648",
        "meta_mean_motion": 15.50570082,
        "meta_eccentricity": 0.00018223,
        "meta_inclination": 43,
        "meta_ra_of_asc_node": 124.0051,
        "meta_arg_of_pericenter": 269.1191,
        "meta_mean_anomaly": 355.5506,
        "meta_ephemeris_type": 0,
        "meta_classification_type": "U",
        "meta_norad_cat_id": 66569,
        "meta_element_set_no": 999,
        "meta_rev_at_epoch": 459,
        "meta_bstar": -0.00011929378,
        "meta_mean_motion_dot": -7.332e-05,
        "meta_mean_motion_ddot": 0,
        "tle_line1": "1 66569U 25268N   25346.25001157 -.00007332  00000+0 -11929-3 0  9997",
        "tle_line2": "2 66569  43.0000 124.0051 0001822 269.1191 355.5506 15.50570082  4596"
      },
      "geometry": {
        "type": "Point",
        "coordinates": [
          40.0938244029097,
          -42.41266468372382
        ]
      }
    }
  ]
}